0 COSMOS 1275 DEB
1 14228U 81053HN  19361.13567628 +.00000280 +00000-0 +25485-3 0  9999
2 14228 082.9689 037.6681 0102805 121.4088 293.6519 13.77514983843022
0 COSMOS 1275 DEB
1 14228U 81053HN  19362.07470797  .00000268  00000-0  24338-3 0  9995
2 14228  82.9688  36.9719 0102739 118.7929 270.3434 13.77515351843347
0 SL-3 DEB
1 14229U 83075D   19361.92455534 +.00000178 +00000-0 +19829-4 0  9997
2 14229 097.5675 327.4673 0028430 024.5014 038.5224 14.97966394976749
0 SL-3 DEB
1 14229U 83075D   19362.85894558  .00000238  00000-0  24943-4 0  9993
2 14229  97.5678 328.3731 0028365  21.5575  37.1869 14.97966935977183
0 ARABSAT 1DR (TELSTAR 3A)
1 14234U 83077A   19361.15252755 +.00000056 +00000-0 +00000-0 0  9992
2 14234 015.2656 001.0590 0022105 101.3514 258.9020 00.99524021022812
0 ARABSAT 1DR (TELSTAR 3A)
1 14234U 83077A   19362.15728329  .00000049  00000-0  00000+0 0  9999
2 14234  15.2653   1.0495 0022107 101.2813 258.9758  0.99524445105445
0 COSMOS 1486
1 14240U 83079A   19361.88935079 +.00000009 +00000-0 +12411-4 0  9999
2 14240 074.0581 051.5150 0014226 201.2503 331.8386 14.33901583902935
0 COSMOS 1486
1 14240U 83079A   19362.50358347  .00000010  00000-0  12886-4 0  9994
2 14240  74.0580  50.3928 0014202 200.0375 262.4740 14.33901608903293
0 SL-8 R/B
1 14241U 83079B   19362.41091946 -.00000047  00000-0 -72085-5 0  9994
2 14241  74.0585 350.5940 0017755 198.6463 161.4042 14.36178049905488
0 SL-8 R/B
1 14241U 83079B   19361.71434540 -.00000043 +00000-0 -57324-5 0  9992
2 14241 074.0586 351.8713 0017785 200.0774 159.9681 14.36178102905118
0 SAKURA 2B (CS-2B)
1 14248U 83081A   19361.46563683 -.00000047 +00000-0 +00000-0 0  9992
2 14248 014.4308 343.1545 0007883 350.2865 201.8391 00.98810413100325
0 SAKURA 2B (CS-2B)
1 14248U 83081A   19362.46958675 -.00000026  00000-0  00000+0 0  9998
2 14248  14.4296 343.1447 0007930 350.5849 198.6767  0.98810252100400
0 COSMOS 1490 (GLONASS)
1 14258U 83084A   19362.38821356  .00000034  00000-0  00000+0 0  9996
2 14258  64.0910 154.1631 0015748   5.2967  59.2427  2.13102935283184
0 COSMOS 1490 (GLONASS)
1 14258U 83084A   19361.54145073 +.00000029 +00000-0 +00000-0 0  9993
2 14258 064.0909 154.1922 0015750 005.3286 129.5993 02.13102919283072
0 COSMOS 1491 (GLONASS)
1 14259U 83084B   19361.34253611 +.00000013 +00000-0 +00000-0 0  9993
2 14259 064.0091 141.8246 0021346 320.9880 064.7333 02.15435010285210
0 SL-12 R/B(2)
1 14264U 83084F   19362.43412031  .00000035  00000-0  00000+0 0  9996
2 14264  64.0804 154.8301 0008949 203.1401 222.0209  2.12926974282959
0 SL-12 R/B(AUX MOTOR)
1 14277U 83084G   19362.37070633  .00000627  00000-0  17125-3 0  9998
2 14277  51.8854 131.6995 5485195  94.5399 326.7926  4.80640876604811
0 SL-12 R/B(AUX MOTOR)
1 14277U 83084G   19361.74665039 +.00000637 +00000-0 +17057-3 0  9993
2 14277 051.8853 132.1099 5485130 094.2408 326.9824 04.80640074604806
0 SL-12 R/B(AUX MOTOR)
1 14278U 83084H   19362.45187898  .00000300  00000-0  14967-3 0  9999
2 14278  52.0834 285.1660 5350316 179.4350 181.7403  4.99345858615344
0 INSAT 1B
1 14318U 83089B   19362.32968428 -.00000356  00000-0  00000+0 0  9992
2 14318  14.1970 346.0428 0006877 211.3792 147.3642  1.00246928101495
0 INSAT 1B
1 14318U 83089B   19361.85864001 -.00000356 +00000-0 +00000-0 0  9992
2 14318 014.1975 346.0473 0006923 211.2909 337.4509 01.00247157101513
0 SATCOM 2R
1 14328U 83094A   19361.83424625 -.00000285 +00000-0 +00000-0 0  9992
2 14328 015.3477 005.0437 0018766 001.8618 349.2605 00.99411973132051
0 SATCOM 2R
1 14328U 83094A   19361.83424625 -.00000285  00000-0  00000+0 0  9991
2 14328  15.3477   5.0437 0018766   1.8618 349.2605  0.99411973132141
0 SL-8 DEB *
1 14344U 82037C   19361.89968758 +.00000153 +00000-0 +50898-4 0  9999
2 14344 074.0598 299.3393 0019516 281.0367 133.9986 14.45496708906886
0 SL-8 DEB *
1 14345U 79089C   19361.70140906 +.00000244 +00000-0 +52160-4 0  9995
2 14345 074.0219 217.2613 0009106 136.6664 285.0760 14.64271797931641
0 SL-8 DEB *
1 14345U 79089C   19362.85312956  .00000237  00000-0  50854-4 0  9998
2 14345  74.0218 215.0470 0009076 133.7627 236.6324 14.64272370931804
0 SL-8 DEB
1 14346U 81041D   19361.90898771 +.00000324 +00000-0 +55640-4 0  9994
2 14346 074.0389 159.4855 0008295 172.9581 308.8003 14.72919287944789
0 COSMOS 1275 DEB
1 14357U 81053HQ  19361.94783900 +.00000350 +00000-0 +19567-3 0  9996
2 14357 082.8444 076.2710 0033516 178.7360 356.1038 14.07925177870458
0 COSMOS 1275 DEB
1 14357U 81053HQ  19362.20349927  .00000356  00000-0  19936-3 0  9999
2 14357  82.8444  76.0680 0033529 177.9948 211.9152 14.07925407870775
0 COSMOS 1275 DEB
1 14358U 81053HR  19362.50633799  .00000499  00000-0  30653-3 0  9993
2 14358  82.8154  17.3537 0189698  74.5557  75.6400 13.95279193852557
0 COSMOS 1275 DEB
1 14358U 81053HR  19361.78404199 +.00000457 +00000-0 +27957-3 0  9999
2 14358 082.8153 017.9177 0189728 076.6321 047.5480 13.95278252852111
0 COSMOS 1275 DEB
1 14364U 81053HX  19361.80039494 +.00000512 +00000-0 +28238-3 0  9996
2 14364 082.7842 027.9915 0035594 048.4878 311.9341 14.09442879893447
0 COSMOS 1275 DEB
1 14364U 81053HX  19362.79426855  .00000502  00000-0  27649-3 0  9990
2 14364  82.7841  27.1941 0035508  45.4898 314.9169 14.09443875893911
0 GALAXY 2
1 14365U 83098A   19362.80756394 -.00000131  00000-0  00000+0 0  9995
2 14365  15.0683   1.3168 0007876   4.2415 183.6718  1.00237533108543
0 GALAXY 2
1 14365U 83098A   19361.85332208 -.00000131 +00000-0 +00000-0 0  9994
2 14365 015.0686 001.3259 0007820 004.1378 199.4197 01.00237540108547
0 COSMOS 1500
1 14372U 83099A   19361.94033309 +.00000438 +00000-0 +19512-4 0  9994
2 14372 082.5147 149.8815 0016519 110.4791 007.4307 15.18592280977642
0 COSMOS 1500
1 14372U 83099A   19362.52384737  .00000483  00000-0  21669-4 0  9999
2 14372  82.5147 149.3040 0016529 108.6306 317.2789 15.18592778978031
0 SL-14 R/B
1 14373U 83099B   19362.03223440  .00000059  00000-0  41970-5 0  9996
2 14373  82.5414 101.1217 0021502  60.2095 112.5501 14.83775884957864
0 SL-14 R/B
1 14373U 83099B   19361.89104125 +.00000057 +00000-0 +39080-5 0  9994
2 14373 082.5414 101.2537 0021508 060.6380 078.3913 14.83775877936749
0 EKRAN 11
1 14377U 83100A   19361.36017290 -.00000315 +00000-0 +00000-0 0  9992
2 14377 012.5102 325.8382 0003966 330.4347 029.5684 01.00254035023676
0 EKRAN 11
1 14377U 83100A   19362.35761472 -.00000313  00000-0  00000+0 0  9997
2 14377  12.5086 325.8275 0003961 330.2070  29.8021  1.00253656127518
0 SL-8 DEB *
1 14398U 82051C   19362.42095411  .00000195  00000-0  55402-4 0  9993
2 14398  74.0461 233.0780 0004226 241.5216 292.1002 14.51810389 10217
0 SL-8 DEB *
1 14398U 82051C   19361.70917427 +.00000197 +00000-0 +55915-4 0  9994
2 14398 074.0461 234.4175 0004246 242.6971 172.3144 14.51810091009711
0 COSMOS 1503
1 14401U 83103A   19361.83119806 +.00000006 +00000-0 +11690-4 0  9998
2 14401 074.0449 105.6203 0012219 084.0962 276.1581 14.32206543891111
0 COSMOS 1503
1 14401U 83103A   19362.04074908  .00000009  00000-0  12837-4 0  9992
2 14401  74.0449 105.2382 0012222  83.6087 276.6456 14.32206563891334
0 SL-8 R/B
1 14402U 83103B   19362.72185747  .00000066  00000-0  31709-4 0  9994
2 14402  74.0462 357.3904 0027627 328.7463  31.2046 14.35965502895035
0 SL-8 R/B
1 14402U 83103B   19361.74651307 +.00000072 +00000-0 +33628-4 0  9994
2 14402 074.0462 359.1799 0027597 330.7321 029.2284 14.35965294894633
0 COSMOS 1275 DEB
1 14407U 81053JC  19361.74991644 +.00000708 +00000-0 +39574-3 0  9993
2 14407 082.7735 001.5103 0053040 060.1761 300.4672 14.08827355888057
0 COSMOS 1275 DEB
1 14407U 81053JC  19362.46013658  .00000656  00000-0  36604-3 0  9996
2 14407  82.7736   0.9401 0053026  58.1418 302.4901 14.08827908888356
0 COSMOS 1275 DEB
1 14409U 81053JE  19362.51378008  .00000196  00000-0  20693-3 0  9997
2 14409  83.0296 245.8134 0122328 200.2078 238.2412 13.66603757974390
0 COSMOS 1275 DEB
1 14409U 81053JE  19361.86549374 +.00000180 +00000-0 +18949-3 0  9994
2 14409 083.0296 246.2811 0122329 202.0223 288.7921 13.66603469974058
0 COSMOS 249 DEB
1 14410U 68091CL  19361.60885054 +.00000813 +00000-0 +45341-3 0  9992
2 14410 062.2186 170.9253 0483152 031.1272 040.2546 13.70696647777060
0 COSMOS 249 DEB
1 14410U 68091CL  19362.47633017  .00000803  00000-0  44862-3 0  9994
2 14410  62.2186 168.4916 0483217  31.3422   0.8488 13.70698295777180
0 COSMOS 249 DEB
1 14412U 68091CN  19362.41394909 -.00000386  00000-0 -38438-3 0  9994
2 14412  62.2963 358.1307 0766961 199.9704 156.9686 12.79285514785705
0 COSMOS 249 DEB
1 14412U 68091CN  19361.39780912 -.00000374 +00000-0 -36836-3 0  9990
2 14412 062.2965 000.5686 0767127 199.7554 157.2154 12.79286167784372
0 COSMOS 249 DEB *
1 14417U 68091CT  19361.92229823 +.00001556 +00000-0 +13237-3 0  9994
2 14417 062.2443 264.4222 0224895 162.3754 198.5300 14.85143652866117
0 COSMOS 249 DEB *
1 14417U 68091CT  19362.12428713  .00001602  00000-0  13573-3 0  9991
2 14417  62.2443 263.7419 0224864 162.4310 198.4719 14.85144523865729
0 COSMOS 252 DEB
1 14420U 68097EB  19361.84243578 +.00001475 +00000-0 +15300-3 0  9991
2 14420 062.2452 240.0599 0257436 016.3559 344.5633 14.73471795884960
0 COSMOS 252 DEB
1 14420U 68097EB  19362.86038498  .00001370  00000-0  14353-3 0  9998
2 14420  62.2452 236.6936 0257585  16.6551 344.2791 14.73474919885106
0 COSMOS 1275 DEB
1 14441U 81053JH  19362.77059498  .00001581  00000-0  10168-2 0  9994
2 14441  83.1194 271.1276 0045211  76.4505 284.1698 14.02024006941425
0 COSMOS 970 DEB
1 14442U 77121BE  19361.83994382 +.00000759 +00000-0 +87234-3 0  9997
2 14442 065.3707 327.8384 0021835 255.3513 185.4706 13.75558251075862
